STARLINK-4013           
1 52604U 22052G   26068.85451529  .00001050  00000+0  84037-4 0  9990
2 52604  53.2159 278.3851 0001192  87.7499 272.3629 15.08847109210888
LEMUR-2-ESPERANZA       
1 63352U 25061B   26068.87489603  .00006090  00000+0  34973-3 0  9993
2 63352  97.5568  45.1407 0016949 244.8770 115.0702 15.12770807 52576
