[{"OBJECT_NAME":"STARLINK-4013","OBJECT_ID":"2022-052G","EPOCH":"2026-03-09T20:30:30.121056","MEAN_MOTION":15.08847109,"ECCENTRICITY":0.00011922,"INCLINATION":53.2159,"RA_OF_ASC_NODE":278.3851,"ARG_OF_PERICENTER":87.7499,"MEAN_ANOMALY":272.3629,"EPHEMERIS_TYPE":0,"CLASSIFICATION_TYPE":"U","NORAD_CAT_ID":52604,"ELEMENT_SET_NO":999,"REV_AT_EPOCH":21088,"BSTAR":8.4037137e-5,"MEAN_MOTION_DOT":1.05e-5,"MEAN_MOTION_DDOT":0},{"OBJECT_NAME":"LEMUR-2-ESPERANZA","OBJECT_ID":"2025-061B","EPOCH":"2026-03-09T20:59:51.017856","MEAN_MOTION":15.12770808,"ECCENTRICITY":0.00169494,"INCLINATION":97.5568,"RA_OF_ASC_NODE":45.1407,"ARG_OF_PERICENTER":244.877,"MEAN_ANOMALY":115.0702,"EPHEMERIS_TYPE":0,"CLASSIFICATION_TYPE":"U","NORAD_CAT_ID":63352,"ELEMENT_SET_NO":999,"REV_AT_EPOCH":5257,"BSTAR":0.00034972806,"MEAN_MOTION_DOT":6.09e-5,"MEAN_MOTION_DDOT":0}]
